CTC2_L_00486021-05
1 10124U 26970HP  26075.70047454  .00000000  00000+0  00000-0 0  9992
2 10124  87.4000 240.0000 0000000   0.0000  40.0000 13.56072486    12
CTC2_L_00486021-06
1 10125U 26605LJ  26075.70047454  .00000000  00000+0  00000-0 0  9998
2 10125  87.4000 240.0000 0000000   0.0000 100.0000 13.56072486    10
CTC2_L_00486022-01
1 10126U 22947SN  26075.70047454  .00000000  00000+0  00000-0 0  9994
2 10126  87.4000 252.0000 0000000   0.0000 168.0000 13.56072486    18
CTC2_L_00486022-02
1 10127U 22405HL  26075.70047454  .00000000  00000+0  00000-0 0  9994
2 10127  87.4000 252.0000 0000000   0.0000 228.0000 13.56072486    16
CTC2_L_00486022-03
1 10128U 25079JX  26075.70047454  .00000000  00000+0  00000-0 0  9995
2 10128  87.4000 252.0000 0000000   0.0000 288.0000 13.56072486    13
CTC2_L_00486022-04
1 10129U 24580DS  26075.70047454  .00000000  00000+0  00000-0 0  9992
2 10129  87.4000 252.0000 0000000   0.0000 348.0000 13.56072486    11
CTC2_L_00486022-05
1 10130U 23722CG  26075.70047454  .00000000  00000+0  00000-0 0  9991
2 10130  87.4000 252.0000 0000000   0.0000  48.0000 13.56072486    10
CTC2_L_00486022-06
1 10131U 25135PE  26075.70047454  .00000000  00000+0  00000-0 0  9992
2 10131  87.4000 252.0000 0000000   0.0000 108.0000 13.56072486    18
CTC2_L_00486023-01
1 10132U 24065GP  26075.70047454  .00000000  00000+0  00000-0 0  9994
2 10132  87.4000 264.0000 0000000   0.0000 176.0000 13.56072486    17
CTC2_L_00486023-02
1 10133U 26535CP  26075.70047454  .00000000  00000+0  00000-0 0  9999
2 10133  87.4000 264.0000 0000000   0.0000 236.0000 13.56072486    15
CTC2_L_00486023-03
1 10134U 22115MQ  26075.70047454  .00000000  00000+0  00000-0 0  9990
2 10134  87.4000 264.0000 0000000   0.0000 296.0000 13.56072486    12
CTC2_L_00486023-04
1 10135U 25940PT  26075.70047454  .00000000  00000+0  00000-0 0  9990
2 10135  87.4000 264.0000 0000000   0.0000 356.0000 13.56072486    10
CTC2_L_00486023-05
1 10136U 23651QA  26075.70047454  .00000000  00000+0  00000-0 0  9998
2 10136  87.4000 264.0000 0000000   0.0000  56.0000 13.56072486    18
CTC2_L_00486023-06
1 10137U 24397FM  26075.70047454  .00000000  00000+0  00000-0 0  9997
2 10137  87.4000 264.0000 0000000   0.0000 116.0000 13.56072486    16
CTC2_L_00486024-01
1 10138U 23975TD  26075.70047454  .00000000  00000+0  00000-0 0  9999
2 10138  87.4000 276.0000 0000000   0.0000 184.0000 13.56072486    15
CTC2_L_00486024-02
1 10139U 23436GZ  26075.70047454  .00000000  00000+0  00000-0 0  9992
2 10139  87.4000 276.0000 0000000   0.0000 244.0000 13.56072486    13
CTC2_L_00486024-03
1 10140U 23369WM  26075.70047454  .00000000  00000+0  00000-0 0  9999
2 10140  87.4000 276.0000 0000000   0.0000 304.0000 13.56072486    12
CTC2_L_00486024-04
1 10141U 25917AK  26075.70047454  .00000000  00000+0  00000-0 0  9991
2 10141  87.4000 276.0000 0000000   0.0000   4.0000 13.56072486    10
CTC2_L_00486024-05
1 10142U 25974BX  26075.70047454  .00000000  00000+0  00000-0 0  9995
2 10142  87.4000 276.0000 0000000   0.0000  64.0000 13.56072486    17
CTC2_L_00486024-06
1 10143U 23147VE  26075.70047454  .00000000  00000+0  00000-0 0  9996
2 10143  87.4000 276.0000 0000000   0.0000 124.0000 13.56072486    15
CTC2_L_00486025-01
1 10144U 24084TV  26075.70047454  .00000000  00000+0  00000-0 0  9998
2 10144  87.4000 288.0000 0000000   0.0000 192.0000 13.56072486    14
CTC2_L_00486025-02
1 10145U 25858OZ  26075.70047454  .00000000  00000+0  00000-0 0  9999
2 10145  87.4000 288.0000 0000000   0.0000 252.0000 13.56072486    12
CTC2_L_00486025-03
1 10146U 26782NC  26075.70047454  .00000000  00000+0  00000-0 0  9997
2 10146  87.4000 288.0000 0000000   0.0000 312.0000 13.56072486    10
CTC2_L_00486025-04
1 10147U 26504SV  26075.70047454  .00000000  00000+0  00000-0 0  9990
2 10147  87.4000 288.0000 0000000   0.0000  12.0000 13.56072486    18
CTC2_L_00486025-05
1 10148U 26040UB  26075.70047454  .00000000  00000+0  00000-0 0  9996
2 10148  87.4000 288.0000 0000000   0.0000  72.0000 13.56072486    15
CTC2_L_00486025-06
1 10149U 26162BZ  26075.70047454  .00000000  00000+0  00000-0 0  9992
2 10149  87.4000 288.0000 0000000   0.0000 132.0000 13.56072486    13
CTC2_L_00486026-01
1 10150U 22398NY  26075.70047454  .00000000  00000+0  00000-0 0  9991
2 10150  87.4000 300.0000 0000000   0.0000 200.0000 13.56072486    16
CTC2_L_00486026-02
1 10151U 25742YH  26075.70047454  .00000000  00000+0  00000-0 0  9998
2 10151  87.4000 300.0000 0000000   0.0000 260.0000 13.56072486    13
CTC2_L_00486026-03
1 10152U 26044VM  26075.70047454  .00000000  00000+0  00000-0 0  9995
2 10152  87.4000 300.0000 0000000   0.0000 320.0000 13.56072486    11
CTC2_L_00486026-04
1 10153U 24994LX  26075.70047454  .00000000  00000+0  00000-0 0  9998
2 10153  87.4000 300.0000 0000000   0.0000  20.0000 13.56072486    19
CTC2_L_00486026-05
1 10154U 23483EU  26075.70047454  .00000000  00000+0  00000-0 0  9991
2 10154  87.4000 300.0000 0000000   0.0000  80.0000 13.56072486    16
CTC2_L_00486026-06
1 10155U 22373XG  26075.70047454  .00000000  00000+0  00000-0 0  9999
2 10155  87.4000 300.0000 0000000   0.0000 140.0000 13.56072486    14
CTC2_L_00486027-01
1 10156U 24219ZM  26075.70047454  .00000000  00000+0  00000-0 0  9991
2 10156  87.4000 312.0000 0000000   0.0000 208.0000 13.56072486    13
CTC2_L_00486027-02
1 10157U 26537BN  26075.70047454  .00000000  00000+0  00000-0 0  9997
2 10157  87.4000 312.0000 0000000   0.0000 268.0000 13.56072486    10
CTC2_L_00486027-03
1 10158U 23884DG  26075.70047454  .00000000  00000+0  00000-0 0  9990
2 10158  87.4000 312.0000 0000000   0.0000 328.0000 13.56072486    18
CTC2_L_00486027-04
1 10159U 23214TQ  26075.70047454  .00000000  00000+0  00000-0 0  9998
2 10159  87.4000 312.0000 0000000   0.0000  28.0000 13.56072486    16
CTC2_L_00486027-05
1 10160U 26226CY  26075.70047454  .00000000  00000+0  00000-0 0  9996
2 10160  87.4000 312.0000 0000000   0.0000  88.0000 13.56072486    14
CTC2_L_00486027-06
1 10161U 22712HV  26075.70047454  .00000000  00000+0  00000-0 0  9993
2 10161  87.4000 312.0000 0000000   0.0000 148.0000 13.56072486    12
CTC2_L_00486028-01
1 10162U 24283TE  26075.70047454  .00000000  00000+0  00000-0 0  9999
2 10162  87.4000 324.0000 0000000   0.0000 216.0000 13.56072486    12
CTC2_L_00486028-02
1 10163U 24709GG  26075.70047454  .00000000  00000+0  00000-0 0  9993
2 10163  87.4000 324.0000 0000000   0.0000 276.0000 13.56072486    19
CTC2_L_00486028-03
1 10164U 25430P   26075.70047454  .00000000  00000+0  00000-0 0  9996
2 10164  87.4000 324.0000 0000000   0.0000 336.0000 13.56072486    17
CTC2_L_00486028-04
1 10165U 25024CB  26075.70047454  .00000000  00000+0  00000-0 0  9996
2 10165  87.4000 324.0000 0000000   0.0000  36.0000 13.56072486    15
CTC2_L_00486028-05
1 10166U 26463QE  26075.70047454  .00000000  00000+0  00000-0 0  9995
2 10166  87.4000 324.0000 0000000   0.0000  96.0000 13.56072486    12
CTC2_L_00486028-06
1 10167U 22984ZH  26075.70047454  .00000000  00000+0  00000-0 0  9990
2 10167  87.4000 324.0000 0000000   0.0000 156.0000 13.56072486    10
CTC2_L_00486029-01
1 10168U 24511XJ  26075.70047454  .00000000  00000+0  00000-0 0  9999
2 10168  87.4000 336.0000 0000000   0.0000 224.0000 13.56072486    10
CTC2_L_00486029-02
1 10169U 25513BX  26075.70047454  .00000000  00000+0  00000-0 0  9993
2 10169  87.4000 336.0000 0000000   0.0000 284.0000 13.56072486    17
CTC2_L_00486029-03
1 10170U 25394XM  26075.70047454  .00000000  00000+0  00000-0 0  9992
2 10170  87.4000 336.0000 0000000   0.0000 344.0000 13.56072486    16
CTC2_L_00486029-04
1 10171U 22383QE  26075.70047454  .00000000  00000+0  00000-0 0  9998
2 10171  87.4000 336.0000 0000000   0.0000  44.0000 13.56072486    14
CTC2_L_00486029-05
1 10172U 25852UG  26075.70047454  .00000000  00000+0  00000-0 0  9993
2 10172  87.4000 336.0000 0000000   0.0000 104.0000 13.56072486    12
CTC2_L_00486029-06
1 10173U 26177LZ  26075.70047454  .00000000  00000+0  00000-0 0  9995
2 10173  87.4000 336.0000 0000000   0.0000 164.0000 13.56072486    19
CTC2_L_00486030-01
1 10174U 23763PY  26075.70047454  .00000000  00000+0  00000-0 0  9994
2 10174  87.4000 348.0000 0000000   0.0000 232.0000 13.56072486    19
CTC2_L_00486030-02
1 10175U 25486SF  26075.70047454  .00000000  00000+0  00000-0 0  9999
2 10175  87.4000 348.0000 0000000   0.0000 292.0000 13.56072486    16
CTC2_L_00486030-03
1 10176U 22605UK  26075.70047454  .00000000  00000+0  00000-0 0  9990
2 10176  87.4000 348.0000 0000000   0.0000 352.0000 13.56072486    14
CTC2_L_00486030-04
1 10177U 26164LX  26075.70047454  .00000000  00000+0  00000-0 0  9995
2 10177  87.4000 348.0000 0000000   0.0000  52.0000 13.56072486    12
CTC2_L_00486030-05
1 10178U 22569UQ  26075.70047454  .00000000  00000+0  00000-0 0  9991
2 10178  87.4000 348.0000 0000000   0.0000 112.0000 13.56072486    10
CTC2_L_00486030-06
1 10179U 24012TS  26075.70047454  .00000000  00000+0  00000-0 0  9997
2 10179  87.4000 348.0000 0000000   0.0000 172.0000 13.56072486    17
